OBJECT_NAME,OBJECT_ID,EPOCH,MEAN_MOTION,ECCENTRICITY,INCLINATION,RA_OF_ASC_NODE,ARG_OF_PERICENTER,MEAN_ANOMALY,EPHEMERIS_TYPE,CLASSIFICATION_TYPE,NORAD_CAT_ID,ELEMENT_SET_NO,REV_AT_EPOCH,BSTAR,MEAN_MOTION_DOT,MEAN_MOTION_DDOT
CONNECTA IOT-3,2024-149H,2026-06-26T13:47:33.219456,15.23619710,.0002122,97.3738,253.4579,197.8628,162.2534,0,U,60475,999,10323,.18059607E-3,.4255E-4,0
QUBE,2024-149J,2026-06-26T11:39:15.496128,15.47621718,.00025736,97.3779,264.0999,168.2368,191.8942,0,U,60476,999,10390,.52397005E-3,.26991E-3,0
WREN-1,2024-149L,2026-06-26T11:32:10.761504,15.41904321,.00040174,97.3769,261.6920,209.3865,150.7157,0,U,60478,999,10375,.48012857E-3,.20346E-3,0
TOMORROW-S1,2024-149M,2026-06-26T03:29:30.450048,15.32837409,.00024757,97.3753,257.5896,179.6441,180.4803,0,U,60479,999,10346,.26523426E-3,.8335E-4,0
FLOCK 4BE-18,2024-149N,2026-06-26T11:46:16.393728,15.42140782,.00037422,97.3732,261.3183,199.2576,160.8531,0,U,60480,999,10374,.43701843E-3,.18654E-3,0
FLOCK 4BE-7,2024-149P,2026-06-26T04:22:29.819712,15.40667551,.00029022,97.3762,260.3291,201.2030,158.9097,0,U,60481,999,10363,.60619025E-3,.24689E-3,0
TOMORROW-S2,2024-149T,2026-06-26T12:03:10.940544,15.32878263,.00020409,97.3822,258.4431,204.3237,155.7910,0,U,60485,999,10351,.26265892E-3,.8263E-4,0
FLOCK 4BE-36,2024-149U,2026-06-26T04:44:12.008544,15.42984190,.00031747,97.3748,261.7345,211.9562,148.1494,0,U,60486,999,10374,.4161463E-3,.18265E-3,0
FLOCK 4BE-25,2024-149V,2026-06-26T04:34:57.082944,15.39053317,.00022186,97.3802,260.4030,185.7841,174.3379,0,U,60487,999,10362,.40494285E-3,.15594E-3,0
FLOCK 4BE-31,2024-149W,2026-06-26T03:43:41.947104,15.44423119,.00022223,97.3800,262.5760,201.1362,158.9795,0,U,60488,999,10376,.50750527E-3,.23415E-3,0
FLOCK 4BE-20,2024-149X,2026-06-26T11:37:15.006144,15.38286706,.00033597,97.3699,259.5535,207.7889,152.3177,0,U,60489,999,10364,.393008E-3,.14758E-3,0
FLOCK 4BE-23,2024-149Y,2026-06-26T11:26:33.620064,15.37891762,.00028262,97.3782,259.9279,211.6393,148.4683,0,U,60490,999,10362,.3758562E-3,.13928E-3,0
FLOCK 4BE-17,2024-149AA,2026-06-26T12:18:53.256096,15.40039225,.00029548,97.3777,260.9567,197.5227,162.5917,0,U,60492,999,10369,.40790592E-3,.16228E-3,0
NUSAT-50 (NANCY ROMAN),2024-149AB,2026-06-26T10:56:31.316064,15.30008215,.00042848,97.3789,258.6472,147.3991,212.7515,0,U,60493,999,10354,.34979243E-3,.1009E-3,0
FLOCK 4BE-22,2024-149AC,2026-06-26T11:40:14.323296,15.41433498,.00031449,97.3736,261.1361,211.5767,148.5292,0,U,60494,999,10373,.39749639E-3,.16559E-3,0
FLOCK 4BE-34,2024-149AD,2026-06-26T12:05:03.070464,15.41414784,.00029597,97.3788,261.9823,219.3908,140.7124,0,U,60495,999,10376,.38487501E-3,.16019E-3,0
TYCHE,2024-149AE,2026-06-26T12:18:15.781824,15.25826203,.00016124,97.3759,255.2047,224.0764,136.0346,0,U,60496,999,10332,.17881321E-3,.4501E-4,0
FLOCK 4BE-32,2024-149AF,2026-06-26T11:10:58.053216,15.42454073,.00032468,97.3726,261.4945,215.4117,144.6915,0,U,60497,999,10376,.43460949E-3,.18745E-3,0
NUSAT-48 (HENRIETTA LEAVITT),2024-149AG,2026-06-26T13:48:27.151200,15.30012637,.00028784,97.3924,259.0258,225.4468,134.6538,0,U,60498,999,10357,.33405707E-3,.9632E-4,0
FLOCK 4BE-30,2024-149AH,2026-06-26T12:11:29.154912,15.58872539,.00054705,97.3780,263.3543,224.7970,135.2846,0,U,60499,999,10322,.18149686E-2,.142703E-2,0
NUSAT-49 (KLARA DAN VON NEUMANN),2024-149AJ,2026-06-26T11:41:59.162784,15.30088951,.00007312,97.3785,258.7108,242.1576,117.9590,0,U,60500,999,10355,.31794594E-3,.9185E-4,0
FLOCK 4BE-11,2024-149AK,2026-06-26T04:42:39.370464,15.43262818,.00034019,97.3702,261.4608,216.5278,143.5738,0,U,60501,999,10374,.46993579E-3,.20839E-3,0
YAM-7,2024-149AN,2026-06-26T11:07:38.179776,15.31938745,.00019376,97.3791,257.6759,246.5073,113.5965,0,U,60504,999,10347,.26148688E-3,.7987E-4,0
FLOCK 4BE-24,2024-149AP,2026-06-26T04:22:22.677888,15.43393376,.00033621,97.3723,261.7058,233.1700,126.9240,0,U,60505,999,10375,.5114653E-3,.22793E-3,0
LUR-1,2024-149AQ,2026-06-26T11:08:40.509600,15.30218747,.00025232,97.3742,256.2256,268.1860,91.9092,0,U,60506,999,10339,.26340491E-3,.7626E-4,0
TANAGER-1,2024-149AR,2026-06-26T05:28:27.688800,15.44774322,.00030643,97.2417,271.4593,272.0111,88.0787,0,U,60507,999,10443,.23946197E-4,.1034E-4,0
EAGLEEYE,2024-149AS,2026-06-26T12:42:18.451008,15.72656610,.00048528,97.3721,271.3936,216.2792,143.8143,0,U,60508,999,10440,.77859895E-3,.105445E-2,0
FLOCK 4BE-29,2024-149AT,2026-06-26T04:29:06.742176,15.44424637,.00018334,97.3815,263.1962,232.7384,127.3697,0,U,60509,999,10380,.43526936E-3,.20062E-3,0
