CONNECTA IOT-3          
1 60475U 24149H   26177.57469004  .00004255  00000+0  18060-3 0  9993
2 60475  97.3738 253.4579 0002122 197.8628 162.2534 15.23619710103231
QUBE                    
1 60476U 24149J   26177.48559602  .00026991  00000+0  52397-3 0  9990
2 60476  97.3779 264.0999 0002573 168.2368 191.8942 15.47621718103906
WREN-1                  
1 60478U 24149L   26177.48068011  .00020346  00000+0  48013-3 0  9999
2 60478  97.3769 261.6920 0004017 209.3865 150.7157 15.41904321103751
TOMORROW-S1             
1 60479U 24149M   26177.14549132  .00008335  00000+0  26523-3 0  9997
2 60479  97.3753 257.5896 0002475 179.6441 180.4803 15.32837409103464
FLOCK 4BE-18            
1 60480U 24149N   26177.49046752  .00018654  00000+0  43702-3 0  9990
2 60480  97.3732 261.3183 0003742 199.2576 160.8531 15.42140782103743
FLOCK 4BE-7             
1 60481U 24149P   26177.18228958  .00024689  00000+0  60619-3 0  9998
2 60481  97.3762 260.3291 0002902 201.2030 158.9097 15.40667551103631
TOMORROW-S2             
1 60485U 24149T   26177.50220996  .00008263  00000+0  26266-3 0  9992
2 60485  97.3822 258.4431 0002040 204.3237 155.7910 15.32878263103513
FLOCK 4BE-36            
1 60486U 24149U   26177.19736121  .00018265  00000+0  41615-3 0  9998
2 60486  97.3748 261.7345 0003174 211.9562 148.1494 15.42984190103742
FLOCK 4BE-25            
1 60487U 24149V   26177.19093846  .00015594  00000+0  40494-3 0  9995
2 60487  97.3802 260.4030 0002218 185.7841 174.3379 15.39053317103621
FLOCK 4BE-31            
1 60488U 24149W   26177.15534661  .00023415  00000+0  50751-3 0  9995
2 60488  97.3800 262.5760 0002222 201.1362 158.9795 15.44423119103761
FLOCK 4BE-20            
1 60489U 24149X   26177.48420146  .00014758  00000+0  39301-3 0  9992
2 60489  97.3699 259.5535 0003359 207.7889 152.3177 15.38286706103643
FLOCK 4BE-23            
1 60490U 24149Y   26177.47677801  .00013928  00000+0  37586-3 0  9996
2 60490  97.3782 259.9279 0002826 211.6393 148.4683 15.37891762103628
FLOCK 4BE-17            
1 60492U 24149AA  26177.51311639  .00016228  00000+0  40791-3 0  9995
2 60492  97.3777 260.9567 0002954 197.5227 162.5917 15.40039225103692
NUSAT-50 (NANCY ROMAN)  
1 60493U 24149AB  26177.45591801  .00010090  00000+0  34979-3 0  9992
2 60493  97.3789 258.6472 0004284 147.3991 212.7515 15.30008215103544
FLOCK 4BE-22            
1 60494U 24149AC  26177.48627689  .00016559  00000+0  39750-3 0  9998
2 60494  97.3736 261.1361 0003144 211.5767 148.5292 15.41433498103738
FLOCK 4BE-34            
1 60495U 24149AD  26177.50350776  .00016019  00000+0  38488-3 0  9990
2 60495  97.3788 261.9823 0002959 219.3908 140.7124 15.41414784103761
TYCHE                   
1 60496U 24149AE  26177.51268266  .00004501  00000+0  17881-3 0  9991
2 60496  97.3759 255.2047 0001612 224.0764 136.0346 15.25826203103323
FLOCK 4BE-32            
1 60497U 24149AF  26177.46594969  .00018745  00000+0  43461-3 0  9996
2 60497  97.3726 261.4945 0003246 215.4117 144.6915 15.42454073103761
NUSAT-48 (HENRIETTA LE*)
1 60498U 24149AG  26177.57531425  .00009632  00000+0  33406-3 0  9990
2 60498  97.3924 259.0258 0002878 225.4468 134.6538 15.30012637103574
FLOCK 4BE-30            
1 60499U 24149AH  26177.50797633  .00142703  00000+0  18150-2 0  9994
2 60499  97.3780 263.3543 0005470 224.7970 135.2846 15.58872539103227
NUSAT-49 (KLARA DAN VO*)
1 60500U 24149AJ  26177.48749031  .00009185  00000+0  31795-3 0  9990
2 60500  97.3785 258.7108 0000731 242.1576 117.9590 15.30088951103557
FLOCK 4BE-11            
1 60501U 24149AK  26177.19628901  .00020839  00000+0  46994-3 0  9997
2 60501  97.3702 261.4608 0003401 216.5278 143.5738 15.43262818103744
YAM-7                   
1 60504U 24149AN  26177.46363634  .00007987  00000+0  26149-3 0  9998
2 60504  97.3791 257.6759 0001937 246.5073 113.5965 15.31938745103472
FLOCK 4BE-24            
1 60505U 24149AP  26177.18220692  .00022793  00000+0  51147-3 0  9992
2 60505  97.3723 261.7058 0003362 233.1700 126.9240 15.43393376103752
LUR-1                   
1 60506U 24149AQ  26177.46435775  .00007626  00000+0  26340-3 0  9999
2 60506  97.3742 256.2256 0002523 268.1860  91.9092 15.30218747103396
TANAGER-1               
1 60507U 24149AR  26177.22809825  .00001034  00000+0  23946-4 0  9992
2 60507  97.2417 271.4593 0003064 272.0111  88.0787 15.44774322104437
EAGLEEYE                
1 60508U 24149AS  26177.52938022  .00105445  00000+0  77860-3 0  9992
2 60508  97.3721 271.3936 0004852 216.2792 143.8143 15.72656610104401
FLOCK 4BE-29            
1 60509U 24149AT  26177.18688359  .00020062  00000+0  43527-3 0  9994
2 60509  97.3815 263.1962 0001833 232.7384 127.3697 15.44424637103805
